{
    "links": {
        "self": "http://www.neowsapp.com/rest/v1/neo/3698533?api_key=iIulBulltgU6a56xZRHN4H3l9WmuAYTsLGpBGhQ2"
    },
    "id": "3698533",
    "neo_reference_id": "3698533",
    "name": "(2014 HH198)",
    "designation": "2014 HH198",
    "nasa_jpl_url": "http://ssd.jpl.nasa.gov/sbdb.cgi?sstr=3698533",
    "absolute_magnitude_h": 28.5,
    "estimated_diameter": {
        "kilometers": {
            "estimated_diameter_min": 0.0053034072,
            "estimated_diameter_max": 0.0118587791
        },
        "meters": {
            "estimated_diameter_min": 5.3034072332,
            "estimated_diameter_max": 11.8587790858
        },
        "miles": {
            "estimated_diameter_min": 0.0032953835,
            "estimated_diameter_max": 0.0073687014
        },
        "feet": {
            "estimated_diameter_min": 17.3996305869,
            "estimated_diameter_max": 38.9067567758
        }
    },
    "is_potentially_hazardous_asteroid": false,
    "close_approach_data": [
        {
            "close_approach_date": "2014-04-15",
            "close_approach_date_full": "2014-Apr-15 17:27",
            "epoch_date_close_approach": 1397582820000,
            "relative_velocity": {
                "kilometers_per_second": "7.6951897666",
                "kilometers_per_hour": "27702.6831599311",
                "miles_per_hour": "17213.3699890139"
            },
            "miss_distance": {
                "astronomical": "0.0206599498",
                "lunar": "8.0367204722",
                "kilometers": "3090684.484386926",
                "miles": "1920462.2855785388"
            },
            "orbiting_body": "Earth"
        }
    ],
    "orbital_data": {
        "orbit_id": "3",
        "orbit_determination_date": "2017-04-06 08:40:51",
        "first_observation_date": "2014-04-25",
        "last_observation_date": "2014-04-26",
        "data_arc_in_days": 1,
        "observations_used": 16,
        "orbit_uncertainty": "9",
        "minimum_orbit_intersection": ".0205477",
        "jupiter_tisserand_invariant": "5.086",
        "epoch_osculation": "2456773.5",
        "eccentricity": ".2896458077425647",
        "semi_major_axis": "1.252826335716134",
        "inclination": "6.626100891844656",
        "ascending_node_longitude": "214.6155570210589",
        "orbital_period": "512.1942964555739",
        "perihelion_distance": ".8899504397464768",
        "perihelion_argument": "288.3548662238815",
        "aphelion_distance": "1.615702231685791",
        "perihelion_time": "2456711.865725777761",
        "mean_anomaly": "43.32015970023709",
        "mean_motion": ".7028582756411565",
        "equinox": "J2000",
        "orbit_class": {
            "orbit_class_type": "APO",
            "orbit_class_description": "Near-Earth asteroid orbits which cross the Earth’s orbit similar to that of 1862 Apollo",
            "orbit_class_range": "a (semi-major axis) > 1.0 AU; q (perihelion) < 1.017 AU"
        }
    },
    "is_sentry_object": false
}